[{"OBJECT_NAME":"ONEWEB-0595","OBJECT_ID":"2022-166V","EPOCH":"2026-03-09T22:37:21.327744","MEAN_MOTION":13.2182539,"ECCENTRICITY":0.00018125,"INCLINATION":87.9171,"RA_OF_ASC_NODE":263.7571,"ARG_OF_PERICENTER":90.6849,"MEAN_ANOMALY":269.4492,"EPHEMERIS_TYPE":0,"CLASSIFICATION_TYPE":"U","NORAD_CAT_ID":54661,"ELEMENT_SET_NO":999,"REV_AT_EPOCH":15842,"BSTAR":-0.00050140173,"MEAN_MOTION_DOT":-1.94e-6,"MEAN_MOTION_DDOT":0},{"OBJECT_NAME":"FREGAT DEB","OBJECT_ID":"2011-037PF","EPOCH":"2026-03-09T22:12:32.097600","MEAN_MOTION":12.40182655,"ECCENTRICITY":0.09600707,"INCLINATION":51.6503,"RA_OF_ASC_NODE":300.0451,"ARG_OF_PERICENTER":59.9492,"MEAN_ANOMALY":309.3092,"EPHEMERIS_TYPE":0,"CLASSIFICATION_TYPE":"U","NORAD_CAT_ID":49271,"ELEMENT_SET_NO":999,"REV_AT_EPOCH":21272,"BSTAR":0.033326982,"MEAN_MOTION_DOT":0.00023181,"MEAN_MOTION_DDOT":0}]
